{
    "CCSDS_OMM_VERS": "3.0",
    "COMMENT": "GENERATED VIA SPACE-TRACK.ORG API",
    "CREATION_DATE": "2025-11-23T22:56:29",
    "ORIGINATOR": "18 SPCS",
    "OBJECT_NAME": "BD-20",
    "OBJECT_ID": "2015-053A",
    "CENTER_NAME": "EARTH",
    "REF_FRAME": "TEME",
    "TIME_SYSTEM": "UTC",
    "MEAN_ELEMENT_THEORY": "SGP4",
    "EPOCH": "2025-11-23T18:53:32.222400",
    "MEAN_MOTION": "1.00274681",
    "ECCENTRICITY": "0.00608560",
    "INCLINATION": "49.5434",
    "RA_OF_ASC_NODE": "261.2322",
    "ARG_OF_PERICENTER": "189.2568",
    "MEAN_ANOMALY": "352.0698",
    "EPHEMERIS_TYPE": "0",
    "CLASSIFICATION_TYPE": "U",
    "NORAD_CAT_ID": "40938",
    "ELEMENT_SET_NO": "999",
    "REV_AT_EPOCH": "3729",
    "BSTAR": "0.00000000000000",
    "MEAN_MOTION_DOT": "-0.00000133",
    "MEAN_MOTION_DDOT": "0.0000000000000",
    "SEMIMAJOR_AXIS": "42163.920",
    "PERIOD": "1436.055",
    "APOAPSIS": "36042.378",
    "PERIAPSIS": "35529.192",
    "OBJECT_TYPE": "PAYLOAD",
    "RCS_SIZE": "LARGE",
    "COUNTRY_CODE": "PRC",
    "LAUNCH_DATE": "2015-09-29",
    "SITE": "XSC",
    "DECAY_DATE": null,
    "FILE": "4896299",
    "GP_ID": "303351095",
    "TLE_LINE0": "0 BD-20",
    "TLE_LINE1": "1 40938U 15053A   25327.78717850 -.00000133  00000-0  00000+0 0  9997",
    "TLE_LINE2": "2 40938  49.5434 261.2322 0060856 189.2568 352.0698  1.00274681 37290"
}